{
    "links": {
        "self": "http://www.neowsapp.com/rest/v1/neo/3442839?api_key=iIulBulltgU6a56xZRHN4H3l9WmuAYTsLGpBGhQ2"
    },
    "id": "3442839",
    "neo_reference_id": "3442839",
    "name": "(2008 YQ27)",
    "designation": "2008 YQ27",
    "nasa_jpl_url": "http://ssd.jpl.nasa.gov/sbdb.cgi?sstr=3442839",
    "absolute_magnitude_h": 22.6,
    "estimated_diameter": {
        "kilometers": {
            "estimated_diameter_min": 0.0802703167,
            "estimated_diameter_max": 0.1794898848
        },
        "meters": {
            "estimated_diameter_min": 80.2703167283,
            "estimated_diameter_max": 179.4898847799
        },
        "miles": {
            "estimated_diameter_min": 0.049877647,
            "estimated_diameter_max": 0.1115298092
        },
        "feet": {
            "estimated_diameter_min": 263.3540659348,
            "estimated_diameter_max": 588.8775935812
        }
    },
    "is_potentially_hazardous_asteroid": false,
    "close_approach_data": [
        {
            "close_approach_date": "2003-05-04",
            "close_approach_date_full": "2003-May-04 07:48",
            "epoch_date_close_approach": 1052034480000,
            "relative_velocity": {
                "kilometers_per_second": "8.8681765217",
                "kilometers_per_hour": "31925.4354782548",
                "miles_per_hour": "19837.2240614745"
            },
            "miss_distance": {
                "astronomical": "0.2464836308",
                "lunar": "95.8821323812",
                "kilometers": "36873426.157546396",
                "miles": "22912084.5668204248"
            },
            "orbiting_body": "Earth"
        },
        {
            "close_approach_date": "2008-12-29",
            "close_approach_date_full": "2008-Dec-29 10:57",
            "epoch_date_close_approach": 1230548220000,
            "relative_velocity": {
                "kilometers_per_second": "10.2749753115",
                "kilometers_per_hour": "36989.9111215505",
                "miles_per_hour": "22984.0922743879"
            },
            "miss_distance": {
                "astronomical": "0.028171507",
                "lunar": "10.958716223",
                "kilometers": "4214397.44189009",
                "miles": "2618705.139419642"
            },
            "orbiting_body": "Earth"
        },
        {
            "close_approach_date": "2009-05-26",
            "close_approach_date_full": "2009-May-26 19:30",
            "epoch_date_close_approach": 1243366200000,
            "relative_velocity": {
                "kilometers_per_second": "8.5358979138",
                "kilometers_per_hour": "30729.2324897744",
                "miles_per_hour": "19093.9500434379"
            },
            "miss_distance": {
                "astronomical": "0.3480988674",
                "lunar": "135.4104594186",
                "kilometers": "52074849.112452438",
                "miles": "32357810.7868541244"
            },
            "orbiting_body": "Earth"
        },
        {
            "close_approach_date": "2011-12-22",
            "close_approach_date_full": "2011-Dec-22 08:59",
            "epoch_date_close_approach": 1324544340000,
            "relative_velocity": {
                "kilometers_per_second": "12.2356520747",
                "kilometers_per_hour": "44048.3474687483",
                "miles_per_hour": "27369.9301257897"
            },
            "miss_distance": {
                "astronomical": "0.0754823525",
                "lunar": "29.3626351225",
                "kilometers": "11291999.156589175",
                "miles": "7016522.915413615"
            },
            "orbiting_body": "Earth"
        }
    ],
    "orbital_data": {
        "orbit_id": "9",
        "orbit_determination_date": "2017-04-06 09:01:49",
        "first_observation_date": "2008-12-28",
        "last_observation_date": "2009-01-03",
        "data_arc_in_days": 6,
        "observations_used": 27,
        "orbit_uncertainty": "8",
        "minimum_orbit_intersection": ".000320217",
        "jupiter_tisserand_invariant": "4.906",
        "epoch_osculation": "2454831.5",
        "eccentricity": ".3063964993899217",
        "semi_major_axis": "1.305594598859149",
        "inclination": "15.1974713938361",
        "ascending_node_longitude": "95.52692405489613",
        "orbital_period": "544.8926427692519",
        "perihelion_distance": ".9055649841463168",
        "perihelion_argument": "48.63884471618151",
        "aphelion_distance": "1.705624213571982",
        "perihelion_time": "2454868.565877771150",
        "mean_anomaly": "335.5112935094909",
        "mean_motion": ".6606806033761238",
        "equinox": "J2000",
        "orbit_class": {
            "orbit_class_type": "APO",
            "orbit_class_description": "Near-Earth asteroid orbits which cross the Earth’s orbit similar to that of 1862 Apollo",
            "orbit_class_range": "a (semi-major axis) > 1.0 AU; q (perihelion) < 1.017 AU"
        }
    },
    "is_sentry_object": false
}